start=new Date('2021-11-19T00:00:00.000Z').valueOf();
sats=[{"REV_AT_EPOCH":"13611","EPOCH":"2021-11-18T19:44:31.119360","NORAD_CAT_ID":"44238","GP_ID":"190037110","APOAPSIS":"511.499","DECAY_DATE":null,"MEAN_MOTION_DOT":"0.00007054","COUNTRY_CODE":"US","SITE":"AFETR","TIME_SYSTEM":"UTC","OBJECT_TYPE":"PAYLOAD","FILE":"3218669","CLASSIFICATION_TYPE":"U","RCS_SIZE":"LARGE","TLE_LINE2":"2 44238  52.9967   2.9480 0001670  57.0949 303.0205 15.18508969136119","MEAN_ELEMENT_THEORY":"SGP4","PERIAPSIS":"509.198","MEAN_ANOMALY":"303.0205","RA_OF_ASC_NODE":"2.9480","MEAN_MOTION":"15.18508969","SEMIMAJOR_AXIS":"6888.483","TLE_LINE1":"1 44238U 19029D   21322.82258240  .00007054  00000-0  35257-3 0  9994","REF_FRAME":"TEME","PERIOD":"94.830","INCLINATION":"52.9967","OBJECT_ID":"2019-029D","ELEMENT_SET_NO":"999","BSTAR":"0.00035257000000","ECCENTRICITY":"0.00016700","OBJECT_NAME":"STARLINK-24","MEAN_MOTION_DDOT":"0.0000000000000","CENTER_NAME":"EARTH","EPHEMERIS_TYPE":"0","LAUNCH_DATE":"2019-05-24","ARG_OF_PERICENTER":"57.0949"},{"LAUNCH_DATE":"2019-05-24","EPHEMERIS_TYPE":"0","ARG_OF_PERICENTER":"175.2557","BSTAR":"0.00046078000000","ECCENTRICITY":"0.00051790","OBJECT_NAME":"STARLINK-61","MEAN_MOTION_DDOT":"0.0000000000000","CENTER_NAME":"EARTH","INCLINATION":"52.9753","OBJECT_ID":"2019-029Q","ELEMENT_SET_NO":"999","MEAN_MOTION":"15.24336447","RA_OF_ASC_NODE":"331.8839","SEMIMAJOR_AXIS":"6870.916","PERIOD":"94.467","TLE_LINE1":"1 44249U 19029Q   21322.72596704  .00011102  00000-0  46078-3 0  9997","REF_FRAME":"TEME","PERIAPSIS":"489.222","MEAN_ANOMALY":"184.8489","MEAN_ELEMENT_THEORY":"SGP4","RCS_SIZE":"LARGE","TLE_LINE2":"2 44249  52.9753 331.8839 0005179 175.2557 184.8489 15.24336447137232","CLASSIFICATION_TYPE":"U","OBJECT_TYPE":"PAYLOAD","FILE":"3218669","SITE":"AFETR","TIME_SYSTEM":"UTC","COUNTRY_CODE":"US","MEAN_MOTION_DOT":"0.00011102","NORAD_CAT_ID":"44249","GP_ID":"190037362","APOAPSIS":"496.339","DECAY_DATE":null,"EPOCH":"2021-11-18T17:25:23.552256","REV_AT_EPOCH":"13723"},{"SITE":"AFETR","TIME_SYSTEM":"UTC","OBJECT_TYPE":"PAYLOAD","FILE":"3218669","MEAN_MOTION_DOT":"0.00008100","COUNTRY_CODE":"US","EPOCH":"2021-11-18T20:18:40.553280","NORAD_CAT_ID":"44252","GP_ID":"190037613","APOAPSIS":"505.139","DECAY_DATE":null,"REV_AT_EPOCH":"13676","BSTAR":"0.00037764000000","ECCENTRICITY":"0.00022260","OBJECT_NAME":"STARLINK-71","MEAN_MOTION_DDOT":"0.0000000000000","CENTER_NAME":"EARTH","EPHEMERIS_TYPE":"0","LAUNCH_DATE":"2019-05-24","ARG_OF_PERICENTER":"34.5093","RA_OF_ASC_NODE":"2.3372","MEAN_MOTION":"15.20740758","SEMIMAJOR_AXIS":"6881.742","REF_FRAME":"TEME","TLE_LINE1":"1 44252U 19029T   21322.84630270  .00008100  00000-0  37764-3 0  9997","PERIOD":"94.691","INCLINATION":"52.9953","OBJECT_ID":"2019-029T","ELEMENT_SET_NO":"999","MEAN_ELEMENT_THEORY":"SGP4","PERIAPSIS":"502.075","MEAN_ANOMALY":"325.6045","CLASSIFICATION_TYPE":"U","RCS_SIZE":"LARGE","TLE_LINE2":"2 44252  52.9953   2.3372 0002226  34.5093 325.6045 15.20740758136762"},{"MEAN_MOTION_DDOT":"0.0000000000000","CENTER_NAME":"EARTH","BSTAR":"0.00096517000000","OBJECT_NAME":"STARLINK-43","ECCENTRICITY":"0.00067030","ARG_OF_PERICENTER":"136.3882","EPHEMERIS_TYPE":"0","LAUNCH_DATE":"2019-05-24","SEMIMAJOR_AXIS":"6765.228","PERIOD":"92.296","TLE_LINE1":"1 44257U 19029Y   21322.68800555  .00080408  00000-0  96517-3 0  9991","REF_FRAME":"TEME","MEAN_MOTION":"15.60195976","RA_OF_ASC_NODE":"219.2703","ELEMENT_SET_NO":"999","OBJECT_ID":"2019-029Y","INCLINATION":"52.9933","MEAN_ELEMENT_THEORY":"SGP4","MEAN_ANOMALY":"223.7660","PERIAPSIS":"382.558","CLASSIFICATION_TYPE":"U","RCS_SIZE":"LARGE","TLE_LINE2":"2 44257  52.9933 219.2703 0006703 136.3882 223.7660 15.60195976138935","TIME_SYSTEM":"UTC","SITE":"AFETR","OBJECT_TYPE":"PAYLOAD","FILE":"3218669","MEAN_MOTION_DOT":"0.00080408","COUNTRY_CODE":"US","EPOCH":"2021-11-18T16:30:43.679520","APOAPSIS":"391.627","DECAY_DATE":null,"NORAD_CAT_ID":"44257","GP_ID":"190036361","REV_AT_EPOCH":"13893"},{"MEAN_ELEMENT_THEORY":"SGP4","MEAN_ANOMALY":"290.5554","PERIAPSIS":"448.835","CLASSIFICATION_TYPE":"U","RCS_SIZE":"LARGE","TLE_LINE2":"2 44282  53.0188 274.3588 0006318  69.6127 290.5554 15.37620165137538","BSTAR":"0.00057314000000","ECCENTRICITY":"0.00063180","OBJECT_NAME":"STARLINK-80","MEAN_MOTION_DDOT":"0.0000000000000","CENTER_NAME":"EARTH","EPHEMERIS_TYPE":"0","LAUNCH_DATE":"2019-05-24","ARG_OF_PERICENTER":"69.6127","RA_OF_ASC_NODE":"274.3588","MEAN_MOTION":"15.37620165","SEMIMAJOR_AXIS":"6831.286","PERIOD":"93.651","TLE_LINE1":"1 44282U 19029AZ  21322.86848481  .00021156  00000-0  57314-3 0  9996","REF_FRAME":"TEME","OBJECT_ID":"2019-029AZ","INCLINATION":"53.0188","ELEMENT_SET_NO":"999","EPOCH":"2021-11-18T20:50:37.087584","NORAD_CAT_ID":"44282","GP_ID":"190036611","APOAPSIS":"457.467","DECAY_DATE":null,"REV_AT_EPOCH":"13753","SITE":"AFETR","TIME_SYSTEM":"UTC","OBJECT_TYPE":"PAYLOAD","FILE":"3218669","MEAN_MOTION_DOT":"0.00021156","COUNTRY_CODE":"US"},{"REV_AT_EPOCH":"11180","DECAY_DATE":null,"APOAPSIS":"547.973","GP_ID":"190037402","NORAD_CAT_ID":"44713","EPOCH":"2021-11-18T15:16:02.411328","COUNTRY_CODE":"US","MEAN_MOTION_DOT":"-0.00000313","FILE":"3218669","OBJECT_TYPE":"PAYLOAD","TIME_SYSTEM":"UTC","SITE":"AFETR","TLE_LINE2":"2 44713  53.0512  43.8736 0001124  70.7829 289.3282 15.06406099111804","RCS_SIZE":"LARGE","CLASSIFICATION_TYPE":"U","PERIAPSIS":"546.416","MEAN_ANOMALY":"289.3282","MEAN_ELEMENT_THEORY":"SGP4","ELEMENT_SET_NO":"999","INCLINATION":"53.0512","OBJECT_ID":"2019-074A","TLE_LINE1":"1 44713U 19074A   21322.63613902 -.00000313  00000-0 -21487-5 0  9996","REF_FRAME":"TEME","PERIOD":"95.592","SEMIMAJOR_AXIS":"6925.330","RA_OF_ASC_NODE":"43.8736","MEAN_MOTION":"15.06406099","ARG_OF_PERICENTER":"70.7829","EPHEMERIS_TYPE":"0","LAUNCH_DATE":"2019-11-11","CENTER_NAME":"EARTH","MEAN_MOTION_DDOT":"0.0000000000000","OBJECT_NAME":"STARLINK-1007","ECCENTRICITY":"0.00011240","BSTAR":"-0.00000214870000"},{"MEAN_ELEMENT_THEORY":"SGP4","PERIAPSIS":"546.313","MEAN_ANOMALY":"283.1655","CLASSIFICATION_TYPE":"U","RCS_SIZE":"LARGE","TLE_LINE2":"2 44714  53.0563  43.9416 0001330  76.9483 283.1655 15.06393203111808","BSTAR":"0.00011728000000","ECCENTRICITY":"0.00013300","OBJECT_NAME":"STARLINK-1008","MEAN_MOTION_DDOT":"0.0000000000000","CENTER_NAME":"EARTH","EPHEMERIS_TYPE":"0","LAUNCH_DATE":"2019-11-11","ARG_OF_PERICENTER":"76.9483","MEAN_MOTION":"15.06393203","RA_OF_ASC_NODE":"43.9416","SEMIMAJOR_AXIS":"6925.369","PERIOD":"95.593","TLE_LINE1":"1 44714U 19074B   21322.61497783  .00001466  00000-0  11728-3 0  9995","REF_FRAME":"TEME","OBJECT_ID":"2019-074B","INCLINATION":"53.0563","ELEMENT_SET_NO":"999","EPOCH":"2021-11-18T14:45:34.084512","NORAD_CAT_ID":"44714","GP_ID":"190037653","APOAPSIS":"548.155","DECAY_DATE":null,"REV_AT_EPOCH":"11180","SITE":"AFETR","TIME_SYSTEM":"UTC","OBJECT_TYPE":"PAYLOAD","FILE":"3218669","MEAN_MOTION_DOT":"0.00001466","COUNTRY_CODE":"US"},{"MEAN_MOTION_DOT":"-0.00000129","COUNTRY_CODE":"US","TIME_SYSTEM":"UTC","SITE":"AFETR","OBJECT_TYPE":"PAYLOAD","FILE":"3218669","REV_AT_EPOCH":"11181","EPOCH":"2021-11-18T17:40:44.094144","DECAY_DATE":null,"APOAPSIS":"548.192","NORAD_CAT_ID":"44715","GP_ID":"190036401","SEMIMAJOR_AXIS":"6925.395","TLE_LINE1":"1 44715U 19074C   21322.73662146 -.00000129  00000-0  10241-4 0  9992","PERIOD":"95.593","REF_FRAME":"TEME","RA_OF_ASC_NODE":"43.3913","MEAN_MOTION":"15.06384809","ELEMENT_SET_NO":"999","OBJECT_ID":"2019-074C","INCLINATION":"53.0561","MEAN_MOTION_DDOT":"0.0000000000000","CENTER_NAME":"EARTH","BSTAR":"0.00001024100000","ECCENTRICITY":"0.00013450","OBJECT_NAME":"STARLINK-1009","ARG_OF_PERICENTER":"81.5847","EPHEMERIS_TYPE":"0","LAUNCH_DATE":"2019-11-11","CLASSIFICATION_TYPE":"U","RCS_SIZE":"LARGE","TLE_LINE2":"2 44715  53.0561  43.3913 0001345  81.5847 278.5295 15.06384809111816","MEAN_ELEMENT_THEORY":"SGP4","MEAN_ANOMALY":"278.5295","PERIAPSIS":"546.329"},{"SITE":"AFETR","TIME_SYSTEM":"UTC","FILE":"3218669","OBJECT_TYPE":"PAYLOAD","MEAN_MOTION_DOT":"-0.00000170","COUNTRY_CODE":"US","EPOCH":"2021-11-18T16:31:43.503744","GP_ID":"190036651","NORAD_CAT_ID":"44716","APOAPSIS":"548.203","DECAY_DATE":null,"REV_AT_EPOCH":"11179","ECCENTRICITY":"0.00014100","OBJECT_NAME":"STARLINK-1010","BSTAR":"0.00000745390000","CENTER_NAME":"EARTH","MEAN_MOTION_DDOT":"0.0000000000000","LAUNCH_DATE":"2019-11-11","EPHEMERIS_TYPE":"0","ARG_OF_PERICENTER":"77.8919","RA_OF_ASC_NODE":"43.6026","MEAN_MOTION":"15.06395609","TLE_LINE1":"1 44716U 19074D   21322.68869796 -.00000170  00000-0  74539-5 0  9994","REF_FRAME":"TEME","PERIOD":"95.592","SEMIMAJOR_AXIS":"6925.362","OBJECT_ID":"2019-074D","INCLINATION":"53.0577","ELEMENT_SET_NO":"999","MEAN_ELEMENT_THEORY":"SGP4","MEAN_ANOMALY":"282.2228","PERIAPSIS":"546.251","CLASSIFICATION_TYPE":"U","TLE_LINE2":"2 44716  53.0577  43.6026 0001410  77.8919 282.2228 15.06395609111798","RCS_SIZE":"LARGE"},{"EPOCH":"2021-11-18T13:17:59.003232","DECAY_DATE":null,"APOAPSIS":"547.999","NORAD_CAT_ID":"44717","GP_ID":"190015484","REV_AT_EPOCH":"11168","TIME_SYSTEM":"UTC","SITE":"AFETR","OBJECT_TYPE":"PAYLOAD","FILE":"3218570","MEAN_MOTION_DOT":"-0.00000175","COUNTRY_CODE":"US","MEAN_ELEMENT_THEORY":"SGP4","PERIAPSIS":"546.433","MEAN_ANOMALY":"281.7311","CLASSIFICATION_TYPE":"U","RCS_SIZE":"LARGE","TLE_LINE2":"2 44717  53.0552  64.2033 0001131  78.3805 281.7311 15.06399150111689","MEAN_MOTION_DDOT":"0.0000000000000","CENTER_NAME":"EARTH","BSTAR":"0.00000715920000","ECCENTRICITY":"0.00011310","OBJECT_NAME":"STARLINK-1011","ARG_OF_PERICENTER":"78.3805","EPHEMERIS_TYPE":"0","LAUNCH_DATE":"2019-11-11","SEMIMAJOR_AXIS":"6925.351","REF_FRAME":"TEME","TLE_LINE1":"1 44717U 19074E   21322.55415513 -.00000175  00000-0  71592-5 0  9996","PERIOD":"95.592","MEAN_MOTION":"15.06399150","RA_OF_ASC_NODE":"64.2033","ELEMENT_SET_NO":"999","OBJECT_ID":"2019-074E","INCLINATION":"53.0552"}];
